H1 CPF 01  gfz 2021 01 08 13  5082 tandemx   
H2 1003001  6202 36605    2021 01 08 12 59 42 2021 01 13 00 00 42   120 1 1  0 0 0
H9
10 0 59223  59742.000000  0   -2916401.822   -266387.254  -6242178.699
10 0 59223  59862.000000  0   -2135478.589    102069.883  -6555331.381
10 0 59223  59982.000000  0   -1311252.033    454713.520  -6754115.250
10 0 59223  60102.000000  0    -458344.112    784808.259  -6835110.993
10 0 59223  60222.000000  0     408028.145   1086272.064  -6796924.950
10 0 59223  60342.000000  0    1272316.259   1353784.338  -6640211.191
10 0 59223  60462.000000  0    2118913.577   1582878.082  -6367663.850
10 0 59223  60582.000000  0    2932431.791   1770014.100  -5983975.578
10 0 59223  60702.000000  0    3697976.872   1912635.169  -5495764.134
10 0 59223  60822.000000  0    4401419.460   2009200.124  -4911469.221
10 0 59223  60942.000000  0    5029658.669   2059197.965  -4241218.619
10 0 59223  61062.000000  0    5570872.097   2063140.383  -3496662.388
10 0 59223  61182.000000  0    6014746.348   2022532.708  -2690778.976
10 0 59223  61302.000000  0    6352685.010   1939824.099  -1837654.947
10 0 59223  61422.000000  0    6577986.648   1818337.506   -952239.235
10 0 59223  61542.000000  0    6685987.939   1662179.958    -50078.637
10 0 59223  61662.000000  0    6674167.007   1476135.358    852962.047
10 0 59223  61782.000000  0    6542203.802   1265543.421   1740985.283
10 0 59223  61902.000000  0    6291999.236   1036166.718   2598349.977
10 0 59223  62022.000000  0    5927646.547    794048.770   3409956.077
10 0 59223  62142.000000  0    5455359.527    545368.256   4161517.703
10 0 59223  62262.000000  0    4883357.074    296292.252   4839818.284
10 0 59223  62382.000000  0    4221711.762     52833.408   5432944.077
10 0 59223  62502.000000  0    3482161.718   -179287.934   5930492.742
10 0 59223  62622.000000  0    2677892.676   -394770.624   6323750.311
10 0 59223  62742.000000  0    1823296.970   -588847.486   6605837.923
10 0 59223  62862.000000  0     933712.001   -757386.350   6771827.236
10 0 59223  62982.000000  0      25141.532   -896975.316   6818821.559
10 0 59223  63102.000000  0    -886032.702  -1004990.202   6746001.934
10 0 59223  63222.000000  0   -1783345.324  -1079643.844   6554639.746
10 0 59223  63342.000000  0   -2650543.237  -1120015.448   6248075.157
10 0 59223  63462.000000  0   -3471878.625  -1126059.964   5831663.482
10 0 59223  63582.000000  0   -4232397.862  -1098598.171   5312689.018
10 0 59223  63702.000000  0   -4918219.561  -1039287.959   4700243.820
10 0 59223  63822.000000  0   -5516795.588   -950575.819   4005073.004
10 0 59223  63942.000000  0   -6017148.942   -835629.905   3239388.896
10 0 59223  64062.000000  0   -6410083.675   -698256.038   2416658.423
10 0 59223  64182.000000  0   -6688364.930   -542798.424   1551365.948
10 0 59223  64302.000000  0   -6846861.593   -374027.425    658752.615
10 0 59223  64422.000000  0   -6882646.151   -197017.450   -245459.951
10 0 59223  64542.000000  0   -6795050.631    -17017.427  -1145355.458
10 0 59223  64662.000000  0   -6585675.982    160682.538  -2025112.161
10 0 59223  64782.000000  0   -6258357.052    330884.204  -2869287.176
10 0 59223  64902.000000  0   -5819084.325    488611.426  -3663094.348
10 0 59223  65022.000000  0   -5275880.893    629234.417  -4392665.937
10 0 59223  65142.000000  0   -4638642.729    748584.210  -5045292.793
10 0 59223  65262.000000  0   -3918945.431    843054.939  -5609639.648
10 0 59223  65382.000000  0   -3129823.804    909691.794  -6075932.785
10 0 59223  65502.000000  0   -2285528.658    946262.458  -6436117.634
10 0 59223  65622.000000  0   -1401267.282    951312.250  -6683986.440
10 0 59223  65742.000000  0    -492929.931    924201.890  -6815274.250
10 0 59223  65862.000000  0     423190.284    865126.608  -6827722.822
10 0 59223  65982.000000  0    1330681.149    775116.992  -6721116.547
10 0 59223  66102.000000  0    2213299.567    656021.331  -6497287.724
10 0 59223  66222.000000  0    3055256.371    510469.871  -6160088.096
10 0 59223  66342.000000  0    3841494.775    341821.654  -5715329.073
10 0 59223  66462.000000  0    4557957.281    154093.338  -5170691.169
10 0 59223  66582.000000  0    5191839.333    -48127.240  -4535603.599
10 0 59223  66702.000000  0    5731825.323   -259782.527  -3821091.821
10 0 59223  66822.000000  0    6168299.599   -475459.778  -3039595.129
10 0 59223  66942.000000  0    6493529.566   -689516.593  -2204757.377
10 0 59223  67062.000000  0    6701816.062   -896214.601  -1331191.543
10 0 59223  67182.000000  0    6789605.183  -1089857.638   -434222.727
10 0 59223  67302.000000  0    6755558.891  -1264931.600    470384.745
10 0 59223  67422.000000  0    6600582.099  -1416242.305   1366711.726
10 0 59223  67542.000000  0    6327804.175  -1539048.212   2238972.834
10 0 59223  67662.000000  0    5942515.654  -1629183.512   3071804.373
10 0 59223  67782.000000  0    5452060.359  -1683168.313   3850542.609
10 0 59223  67902.000000  0    4865687.615  -1698304.656   4561487.042
10 0 59223  68022.000000  0    4194368.564  -1672754.245   5192143.376
10 0 59223  68142.000000  0    3450582.208  -1605596.534   5731442.957
10 0 59223  68262.000000  0    2648074.018  -1496867.081   6169934.492
10 0 59223  68382.000000  0    1801594.906  -1347574.928   6499943.767
10 0 59223  68502.000000  0     926625.497  -1159699.226   6715702.599
10 0 59223  68622.000000  0      39089.676   -936163.963   6813443.975
10 0 59223  68742.000000  0    -844935.797   -680792.006   6791462.476
10 0 59223  68862.000000  0   -1709511.158   -398239.794   6650141.482
10 0 59223  68982.000000  0   -2539119.604    -93912.720   6391946.845
10 0 59223  69102.000000  0   -3318945.059    226137.280   6021387.453
10 0 59223  69222.000000  0   -4035138.669    555330.187   5544942.251
10 0 59223  69342.000000  0   -4675069.446    886690.493   4970952.921
10 0 59223  69462.000000  0   -5227553.812   1212992.009   4309483.778
10 0 59223  69582.000000  0   -5683059.563   1526912.180   3572149.151
10 0 59223  69702.000000  0   -6033878.789   1821192.267   2771911.731
10 0 59223  69822.000000  0   -6274267.250   2088800.037   1922854.805
10 0 59223  69942.000000  0   -6400546.776   2323091.195   1039931.527
10 0 59223  70062.000000  0   -6411166.490   2517965.839    138694.660
10 0 59223  70182.000000  0   -6306720.377   2668014.661   -764985.833
10 0 59223  70302.000000  0   -6089921.666   2768651.640  -1655211.252
10 0 59223  70422.000000  0   -5765534.823   2816230.478  -2516342.351
10 0 59223  70542.000000  0   -5340265.666   2808141.280  -3333281.823
10 0 59223  70662.000000  0   -4822613.779   2742884.290  -4091742.526
10 0 59223  70782.000000  0   -4222692.506   2620120.449  -4778496.994
10 0 59223  70902.000000  0   -3552020.982   2440697.410  -5381603.352
10 0 59223  71022.000000  0   -2823294.948   2206651.743  -5890603.909
10 0 59223  71142.000000  0   -2050142.019   1921187.697  -6296696.738
10 0 59223  71262.000000  0   -1246863.359   1588632.143  -6592876.876
10 0 59223  71382.000000  0    -428170.486   1214367.648  -6774044.817
10 0 59223  71502.000000  0     391079.495    804745.162  -6837084.552
10 0 59223  71622.000000  0    1196146.047    366978.387  -6780912.049
10 0 59223  71742.000000  0    1972665.440    -90980.718  -6606493.223
10 0 59223  71862.000000  0    2706900.980   -560582.777  -6316828.036
10 0 59223  71982.000000  0    3385982.058  -1032836.045  -5916905.077
10 0 59223  72102.000000  0    3998127.638  -1498473.480  -5413623.598
10 0 59223  72222.000000  0    4532852.399  -1948130.513  -4815686.756
10 0 59223  72342.000000  0    4981151.825  -2372531.278  -4133462.206
10 0 59223  72462.000000  0    5335661.238  -2762678.164  -3378812.634
10 0 59223  72582.000000  0    5590786.690  -3110041.383  -2564897.616
10 0 59223  72702.000000  0    5742803.330  -3406744.247  -1705948.115
10 0 59223  72822.000000  0    5789917.844  -3645739.558   -817018.608
10 0 59223  72942.000000  0    5732293.734  -3820973.343     86279.600
10 0 59223  73062.000000  0    5572037.232  -3927530.592    988058.389
10 0 59223  73182.000000  0    5313144.121  -3961760.488   1872440.814
10 0 59223  73302.000000  0    4961406.911  -3921374.646   2723850.744
10 0 59223  73422.000000  0    4524285.933  -3805517.152   3527294.644
10 0 59223  73542.000000  0    4010749.370  -3614805.470   4268631.547
10 0 59223  73662.000000  0    3431084.974  -3351341.894   4934826.489
10 0 59223  73782.000000  0    2796686.760  -3018693.391   5514180.692
10 0 59223  73902.000000  0    2119825.593  -2621841.574   5996534.776
10 0 59223  74022.000000  0    1413406.394  -2167104.806   6373442.518
10 0 59223  74142.000000  0     690718.514  -1662034.474   6638312.609
10 0 59223  74262.000000  0     -34816.111  -1115286.797   6786517.943
10 0 59223  74382.000000  0    -749892.294   -536472.606   6815471.159
10 0 59223  74502.000000  0   -1441564.493     64012.000   6724666.377
10 0 59223  74622.000000  0   -2097480.243    675171.981   6515687.564
10 0 59223  74742.000000  0   -2706100.287   1285613.930   6192182.779
10 0 59223  74862.000000  0   -3256902.336   1883757.495   5759804.655
10 0 59223  74982.000000  0   -3740565.731   2458054.858   5226118.182
10 0 59223  75102.000000  0   -4149133.978   2997215.315   4600474.588
10 0 59223  75222.000000  0   -4476151.292   3490429.577   3893852.498
10 0 59223  75342.000000  0   -4716770.847   3927589.222   3118668.536
10 0 59223  75462.000000  0   -4867830.924   4299497.189   2288559.962
10 0 59223  75582.000000  0   -4927897.890   4598065.202   1418143.145
10 0 59223  75702.000000  0   -4897273.703   4816491.055    522750.348
10 0 59223  75822.000000  0   -4777968.551   4949410.447   -381847.386
10 0 59223  75942.000000  0   -4573639.797   4993022.270  -1279726.790
10 0 59223  76062.000000  0   -4289494.828   4945182.058  -2155103.346
10 0 59223  76182.000000  0   -3932163.689   4805460.727  -2992616.122
99
